{
  "type": "FeatureCollection",
  "features": [
    {
      "type": "Feature",
      "properties": {
        "norad_id": 41866,
        "name": "GOES 16",
        "group": "weather",
        "lat": 0.04705653275651935,
        "lon": -168.81415217447807,
        "alt_km": 35780.65135577379,
        "timestamp": "2025-12-07T14:37:04.852968+00:00",
        "meta_object_name": "GOES 16",
        "meta_object_id": "2016-071A",
        "meta_epoch": "2025-12-06T21:43:40.357344",
        "meta_mean_motion": 1.00271398,
        "meta_eccentricity": 0.00035226,
        "meta_inclination": 0.0643,
        "meta_ra_of_asc_node": 106.572,
        "meta_arg_of_pericenter": 152.8562,
        "meta_mean_anomaly": 37.7578,
        "meta_ephemeris_type": 0,
        "meta_classification_type": "U",
        "meta_norad_cat_id": 41866,
        "meta_element_set_no": 999,
        "meta_rev_at_epoch": 3317,
        "meta_bstar": 0,
        "meta_mean_motion_dot": -8.5e-07,
        "meta_mean_motion_ddot": 0,
        "tle_line1": "1 41866U 16071A   25340.90532821 -.00000085  00000+0  00000+0 0  9996",
        "tle_line2": "2 41866   0.0643 106.5720 0003522 152.8562  37.7578  1.00271398 33174"
      },
      "geometry": {
        "type": "Point",
        "coordinates": [
          -168.81415217447807,
          0.04705653275651935
        ]
      }
    },
    {
      "type": "Feature",
      "properties": {
        "norad_id": 41882,
        "name": "FENGYUN 4A",
        "group": "weather",
        "lat": -0.68559922156529,
        "lon": 59.707566361406776,
        "alt_km": 35805.607044486474,
        "timestamp": "2025-12-07T14:37:04.852980+00:00",
        "meta_object_name": "FENGYUN 4A",
        "meta_object_id": "2016-077A",
        "meta_epoch": "2025-12-06T15:57:57.009024",
        "meta_mean_motion": 1.00276523,
        "meta_eccentricity": 0.00050257,
        "meta_inclination": 1.8332,
        "meta_ra_of_asc_node": 82.4537,
        "meta_arg_of_pericenter": 143.1616,
        "meta_mean_anomaly": 213.3727,
        "meta_ephemeris_type": 0,
        "meta_classification_type": "U",
        "meta_norad_cat_id": 41882,
        "meta_element_set_no": 999,
        "meta_rev_at_epoch": 3299,
        "meta_bstar": 0,
        "meta_mean_motion_dot": -3.51e-06,
        "meta_mean_motion_ddot": 0,
        "tle_line1": "1 41882U 16077A   25340.66524316 -.00000351  00000+0  00000+0 0  9999",
        "tle_line2": "2 41882   1.8332  82.4537 0005025 143.1616 213.3727  1.00276523 32999"
      },
      "geometry": {
        "type": "Point",
        "coordinates": [
          59.707566361406776,
          -0.68559922156529
        ]
      }
    },
    {
      "type": "Feature",
      "properties": {
        "norad_id": 41884,
        "name": "CYGFM05",
        "group": "weather",
        "lat": 4.841930577805109,
        "lon": -106.32538672527699,
        "alt_km": 417.5545695373221,
        "timestamp": "2025-12-07T14:37:04.852992+00:00",
        "meta_object_name": "CYGFM05",
        "meta_object_id": "2016-078A",
        "meta_epoch": "2025-12-06T16:12:11.957760",
        "meta_mean_motion": 15.47308278,
        "meta_eccentricity": 0.00094349,
        "meta_inclination": 34.9599,
        "meta_ra_of_asc_node": 86.7363,
        "meta_arg_of_pericenter": 125.7686,
        "meta_mean_anomaly": 234.3914,
        "meta_ephemeris_type": 0,
        "meta_classification_type": "U",
        "meta_norad_cat_id": 41884,
        "meta_element_set_no": 999,
        "meta_rev_at_epoch": 49882,
        "meta_bstar": 0.00057222613,
        "meta_mean_motion_dot": 0.00030212,
        "meta_mean_motion_ddot": 0,
        "tle_line1": "1 41884U 16078A   25340.67513840  .00030212  00000+0  57223-3 0  9994",
        "tle_line2": "2 41884  34.9599  86.7363 0009434 125.7686 234.3914 15.47308278498826"
      },
      "geometry": {
        "type": "Point",
        "coordinates": [
          -106.32538672527699,
          4.841930577805109
        ]
      }
    },
    {
      "type": "Feature",
      "properties": {
        "norad_id": 41885,
        "name": "CYGFM04",
        "group": "weather",
        "lat": 0.2777958327501484,
        "lon": 55.96056687430388,
        "alt_km": 421.0769465515059,
        "timestamp": "2025-12-07T14:37:04.853003+00:00",
        "meta_object_name": "CYGFM04",
        "meta_object_id": "2016-078B",
        "meta_epoch": "2025-12-06T15:25:46.846848",
        "meta_mean_motion": 15.49987284,
        "meta_eccentricity": 0.00086984,
        "meta_inclination": 34.9353,
        "meta_ra_of_asc_node": 61.8983,
        "meta_arg_of_pericenter": 154.9668,
        "meta_mean_anomaly": 205.1477,
        "meta_ephemeris_type": 0,
        "meta_classification_type": "U",
        "meta_norad_cat_id": 41885,
        "meta_element_set_no": 999,
        "meta_rev_at_epoch": 49899,
        "meta_bstar": 0.00057197689,
        "meta_mean_motion_dot": 0.00033191,
        "meta_mean_motion_ddot": 0,
        "tle_line1": "1 41885U 16078B   25340.64290332  .00033191  00000+0  57198-3 0  9990",
        "tle_line2": "2 41885  34.9353  61.8983 0008698 154.9668 205.1477 15.49987284498992"
      },
      "geometry": {
        "type": "Point",
        "coordinates": [
          55.96056687430388,
          0.2777958327501484
        ]
      }
    },
    {
      "type": "Feature",
      "properties": {
        "norad_id": 41886,
        "name": "CYGFM02",
        "group": "weather",
        "lat": -6.743494079125869,
        "lon": 44.20475425149671,
        "alt_km": 419.419625311818,
        "timestamp": "2025-12-07T14:37:04.853014+00:00",
        "meta_object_name": "CYGFM02",
        "meta_object_id": "2016-078C",
        "meta_epoch": "2025-12-06T21:40:50.086272",
        "meta_mean_motion": 15.5135622,
        "meta_eccentricity": 0.00104598,
        "meta_inclination": 34.9441,
        "meta_ra_of_asc_node": 58.591,
        "meta_arg_of_pericenter": 156.7938,
        "meta_mean_anomaly": 203.3259,
        "meta_ephemeris_type": 0,
        "meta_classification_type": "U",
        "meta_norad_cat_id": 41886,
        "meta_element_set_no": 999,
        "meta_rev_at_epoch": 49916,
        "meta_bstar": 0.00051657722,
        "meta_mean_motion_dot": 0.0003149,
        "meta_mean_motion_ddot": 0,
        "tle_line1": "1 41886U 16078C   25340.90335748  .00031490  00000+0  51658-3 0  9996",
        "tle_line2": "2 41886  34.9441  58.5910 0010459 156.7938 203.3259 15.51356220499163"
      },
      "geometry": {
        "type": "Point",
        "coordinates": [
          44.20475425149671,
          -6.743494079125869
        ]
      }
    },
    {
      "type": "Feature",
      "properties": {
        "norad_id": 41887,
        "name": "CYGFM01",
        "group": "weather",
        "lat": -14.050709248284642,
        "lon": -75.9717879428763,
        "alt_km": 422.1315639352206,
        "timestamp": "2025-12-07T14:37:04.853024+00:00",
        "meta_object_name": "CYGFM01",
        "meta_object_id": "2016-078D",
        "meta_epoch": "2025-12-06T17:36:55.295712",
        "meta_mean_motion": 15.47882024,
        "meta_eccentricity": 0.0009063,
        "meta_inclination": 34.9427,
        "meta_ra_of_asc_node": 88.7437,
        "meta_arg_of_pericenter": 117.4524,
        "meta_mean_anomaly": 242.712,
        "meta_ephemeris_type": 0,
        "meta_classification_type": "U",
        "meta_norad_cat_id": 41887,
        "meta_element_set_no": 999,
        "meta_rev_at_epoch": 49877,
        "meta_bstar": 0.00058130197,
        "meta_mean_motion_dot": 0.00031314,
        "meta_mean_motion_ddot": 0,
        "tle_line1": "1 41887U 16078D   25340.73397333  .00031314  00000+0  58130-3 0  9993",
        "tle_line2": "2 41887  34.9427  88.7437 0009063 117.4524 242.7120 15.47882024498772"
      },
      "geometry": {
        "type": "Point",
        "coordinates": [
          -75.9717879428763,
          -14.050709248284642
        ]
      }
    },
    {
      "type": "Feature",
      "properties": {
        "norad_id": 41888,
        "name": "CYGFM08",
        "group": "weather",
        "lat": -26.539102035601882,
        "lon": -68.26436090041807,
        "alt_km": 419.55307321330656,
        "timestamp": "2025-12-07T14:37:04.853035+00:00",
        "meta_object_name": "CYGFM08",
        "meta_object_id": "2016-078E",
        "meta_epoch": "2025-12-06T15:58:19.766784",
        "meta_mean_motion": 15.49065547,
        "meta_eccentricity": 0.00108309,
        "meta_inclination": 34.9461,
        "meta_ra_of_asc_node": 72.2536,
        "meta_arg_of_pericenter": 142.51,
        "meta_mean_anomaly": 217.6379,
        "meta_ephemeris_type": 0,
        "meta_classification_type": "U",
        "meta_norad_cat_id": 41888,
        "meta_element_set_no": 999,
        "meta_rev_at_epoch": 49899,
        "meta_bstar": 0.00059130563,
        "meta_mean_motion_dot": 0.00033239,
        "meta_mean_motion_ddot": 0,
        "tle_line1": "1 41888U 16078E   25340.66550656  .00033239  00000+0  59131-3 0  9995",
        "tle_line2": "2 41888  34.9461  72.2536 0010830 142.5100 217.6379 15.49065547498998"
      },
      "geometry": {
        "type": "Point",
        "coordinates": [
          -68.26436090041807,
          -26.539102035601882
        ]
      }
    }
  ]
}